CS1                     
1 49261U 21088B   26068.75173904  .00015722  00000+0  51176-3 0  9998
2 49261  97.3882 132.1684 0014129  78.0335 282.2490 15.31848439245182
STARLINK-31791          
1 59637U 24082G   26068.22546170  .00002987  00000+0  11812-3 0  9996
2 59637  42.9988 142.1953 0000366 200.7339 159.3497 15.27551311104741
